{"type": "FeatureCollection", "features": [{"type": "Feature", "properties": {"name": "Priory Park (blacksmith Fntn)", "address": "140 MacDonell Street", "status": "mismatch", "objectid": 12, "osm_name": "Priory Square", "osm_url": "https://www.openstreetmap.org/way/846635264"}, "geometry": {"type": "Polygon", "coordinates": [[[-80.24588, 43.54625], [-80.24576, 43.54613], [-80.24549, 43.54626], [-80.24562, 43.54638], [-80.24588, 43.54625]]]}}, {"type": "Feature", "properties": {"name": "Stephanie Drive Park", "address": "275 Stephanie Drive", "status": "mismatch", "objectid": 13, "osm_name": "Stephanie Park", "osm_url": "https://www.openstreetmap.org/way/208503258"}, "geometry": {"type": "Polygon", "coordinates": [[[-80.28134, 43.52366], [-80.28176, 43.52286], [-80.2819, 43.52258], [-80.28154, 43.52249], [-80.28141, 43.52276], [-80.28122, 43.52271], [-80.28103, 43.52266], [-80.28099, 43.52265], [-80.28085, 43.5226], [-80.28066, 43.52255], [-80.28047, 43.5225], [-80.28029, 43.52244], [-80.2801, 43.52239], [-80.27997, 43.52236], [-80.27991, 43.52234], [-80.27973, 43.52229], [-80.27954, 43.52223], [-80.27936, 43.52218], [-80.27919, 43.52215], [-80.27902, 43.52212], [-80.27884, 43.52212], [-80.27867, 43.52213], [-80.2785, 43.52215], [-80.27834, 43.5222], [-80.27821, 43.52223], [-80.27787, 43.52203], [-80.27782, 43.52205], [-80.27975, 43.5232], [-80.27981, 43.52324], [-80.28134, 43.52366]]]}}, {"type": "Feature", "properties": {"name": "Unnamed Neighbourhood Park", "address": "35 George Street", "status": "placeholder", "objectid": 19}, "geometry": {"type": "Polygon", "coordinates": [[[-80.26, 43.55567], [-80.26026, 43.55548], [-80.25994, 43.55524], [-80.25968, 43.55544], [-80.26, 43.55567]]]}}, {"type": "Feature", "properties": {"name": "Pinch Park", "address": "101 Baxter Drive", "status": "missing", "objectid": 23}, "geometry": {"type": "Polygon", "coordinates": [[[-80.17694, 43.51407], [-80.17724, 43.51385], [-80.17705, 43.51368], [-80.17665, 43.51382], [-80.17668, 43.51387], [-80.17672, 43.51391], [-80.17676, 43.51395], [-80.17681, 43.51398], [-80.17694, 43.51407]]]}}, {"type": "Feature", "properties": {"name": "John Mccrae Memorial Gardens", "address": "10 McCrae Boulevard", "status": "missing", "objectid": 28}, "geometry": {"type": "Polygon", "coordinates": [[[-80.24478, 43.53623], [-80.24515, 43.53596], [-80.24488, 43.53577], [-80.24452, 43.53604], [-80.24478, 43.53623]]]}}, {"type": "Feature", "properties": {"name": "Robin Road Park", "address": "74 Robin Road", "status": "missing", "objectid": 30}, "geometry": {"type": "Polygon", "coordinates": [[[-80.20099, 43.52228], [-80.20121, 43.52212], [-80.20166, 43.52224], [-80.20168, 43.52222], [-80.20169, 43.5222], [-80.20172, 43.52218], [-80.20174, 43.52217], [-80.20148, 43.52191], [-80.20165, 43.52179], [-80.20165, 43.52179], [-80.20137, 43.5217], [-80.20096, 43.52143], [-80.20025, 43.52137], [-80.19998, 43.52156], [-80.20099, 43.52228]]]}}, {"type": "Feature", "properties": {"name": "Gosling Gardens Park", "address": "75 Gosling Gardens", "status": "unnamed", "objectid": 46, "osm_name": null, "osm_url": "https://www.openstreetmap.org/way/217504227"}, "geometry": {"type": "Polygon", "coordinates": [[[-80.19407, 43.50195], [-80.1942, 43.50185], [-80.19428, 43.50179], [-80.1943, 43.50178], [-80.1941, 43.50163], [-80.19483, 43.5011], [-80.19451, 43.50087], [-80.19448, 43.50089], [-80.19435, 43.50098], [-80.19405, 43.5012], [-80.1939, 43.50131], [-80.19354, 43.50156], [-80.19407, 43.50195]]]}}, {"type": "Feature", "properties": {"name": "Brant Avenue Park", "address": "601 Woodlawn Road East", "status": "mismatch", "objectid": 56, "osm_name": "Brant Park", "osm_url": "https://www.openstreetmap.org/way/178085560"}, "geometry": {"type": "Polygon", "coordinates": [[[-80.25538, 43.57976], [-80.25519, 43.57962], [-80.25517, 43.57961], [-80.25517, 43.57961], [-80.255, 43.57948], [-80.25483, 43.57936], [-80.2547, 43.57926], [-80.2546, 43.57919], [-80.25354, 43.57996], [-80.25365, 43.58004], [-80.25377, 43.58013], [-80.2539, 43.58022], [-80.25403, 43.58031], [-80.25413, 43.58038], [-80.25415, 43.5804], [-80.25428, 43.58049], [-80.25441, 43.58058], [-80.25453, 43.58067], [-80.25465, 43.58076], [-80.25478, 43.58085], [-80.25493, 43.58096], [-80.25598, 43.58019], [-80.25568, 43.57997], [-80.25538, 43.57976]]]}}, {"type": "Feature", "properties": {"name": "300 Grange Subdivision Park", "address": "334 Grange Road", "status": "missing", "objectid": 57}, "geometry": {"type": "Polygon", "coordinates": [[[-80.22467, 43.56196], [-80.22477, 43.56203], [-80.22483, 43.56206], [-80.22488, 43.5621], [-80.22495, 43.56215], [-80.225, 43.56219], [-80.22524, 43.56201], [-80.2249, 43.56178], [-80.22467, 43.56196]]]}}, {"type": "Feature", "properties": {"name": "Memorial Crescent Park", "address": "116 Memorial Crescent", "status": "missing", "objectid": 61}, "geometry": {"type": "Polygon", "coordinates": [[[-80.26875, 43.53543], [-80.26878, 43.53545], [-80.26905, 43.53525], [-80.2691, 43.53528], [-80.26915, 43.53532], [-80.26931, 43.5352], [-80.26947, 43.53509], [-80.26942, 43.53505], [-80.26937, 43.53502], [-80.26927, 43.53495], [-80.26917, 43.53493], [-80.26909, 43.53492], [-80.269, 43.53465], [-80.26896, 43.53467], [-80.26905, 43.53493], [-80.26889, 43.53498], [-80.26874, 43.53503], [-80.26902, 43.53523], [-80.26875, 43.53543]]]}}, {"type": "Feature", "properties": {"name": "65 Delhi Street Park", "address": "65 Delhi Street", "status": "missing", "objectid": 62}, "geometry": {"type": "MultiPolygon", "coordinates": [[[[-80.2498, 43.55509], [-80.25022, 43.5554], [-80.25024, 43.55541], [-80.2503, 43.55546], [-80.25079, 43.5551], [-80.25034, 43.55478], [-80.24988, 43.55445], [-80.24988, 43.55445], [-80.2498, 43.55509]]], [[[-80.25079, 43.55472], [-80.25109, 43.55489], [-80.25125, 43.55477], [-80.25098, 43.55458], [-80.25079, 43.55472]]]]}}, {"type": "Feature", "properties": {"name": "Market Square Park", "address": "1 Carden Street", "status": "unnamed", "objectid": 64, "osm_name": null, "osm_url": "https://www.openstreetmap.org/way/934779366"}, "geometry": {"type": "MultiPolygon", "coordinates": [[[[-80.24809, 43.54368], [-80.24834, 43.54394], [-80.24922, 43.5435], [-80.24897, 43.54323], [-80.24885, 43.54329], [-80.24899, 43.54344], [-80.24881, 43.54352], [-80.24868, 43.54339], [-80.24809, 43.54368]]], [[[-80.24768, 43.54404], [-80.24783, 43.54419], [-80.24826, 43.54398], [-80.24817, 43.54388], [-80.2481, 43.54391], [-80.24805, 43.54386], [-80.24768, 43.54404]]]]}}, {"type": "Feature", "properties": {"name": "Sugartree Woodlot", "address": "381 Westwood Road", "status": "missing", "objectid": 69}, "geometry": {"type": "Polygon", "coordinates": [[[-80.29519, 43.53561], [-80.29519, 43.53561], [-80.2956, 43.53544], [-80.29558, 43.53542], [-80.29557, 43.5354], [-80.29514, 43.5351], [-80.29525, 43.53503], [-80.29536, 43.53495], [-80.29547, 43.53488], [-80.29559, 43.53498], [-80.29566, 43.53478], [-80.29495, 43.53484], [-80.29493, 43.53485], [-80.29491, 43.53486], [-80.29489, 43.53487], [-80.29488, 43.53488], [-80.29487, 43.5349], [-80.29487, 43.53492], [-80.2949, 43.53502], [-80.29493, 43.53512], [-80.29497, 43.53522], [-80.29502, 43.53532], [-80.29507, 43.53542], [-80.29513, 43.53552], [-80.29519, 43.53561]]]}}, {"type": "Feature", "properties": {"name": "Mitchell Park", "address": "70 Elmira Road", "status": "missing", "objectid": 70}, "geometry": {"type": "Polygon", "coordinates": [[[-80.2968, 43.52533], [-80.29679, 43.52534], [-80.29678, 43.52535], [-80.29677, 43.52536], [-80.29677, 43.52537], [-80.29676, 43.52538], [-80.29676, 43.52539], [-80.29676, 43.5254], [-80.29677, 43.52541], [-80.29677, 43.52543], [-80.29678, 43.52544], [-80.29679, 43.52545], [-80.2968, 43.52546], [-80.29695, 43.52556], [-80.29707, 43.52564], [-80.29707, 43.52564], [-80.29719, 43.52571], [-80.2973, 43.52578], [-80.29744, 43.52587], [-80.29758, 43.52595], [-80.29772, 43.52602], [-80.29794, 43.52615], [-80.29809, 43.52601], [-80.29822, 43.52588], [-80.29843, 43.52578], [-80.29863, 43.52567], [-80.29886, 43.52562], [-80.2991, 43.52557], [-80.29929, 43.52556], [-80.29948, 43.52555], [-80.29966, 43.52553], [-80.29984, 43.52552], [-80.30003, 43.52551], [-80.30021, 43.52549], [-80.3004, 43.52548], [-80.30058, 43.52547], [-80.30077, 43.52545], [-80.30095, 43.52544], [-80.30114, 43.52543], [-80.30132, 43.52541], [-80.30151, 43.5254], [-80.30169, 43.52539], [-80.30188, 43.52537], [-80.302, 43.52534], [-80.30212, 43.52531], [-80.30231, 43.52519], [-80.30184, 43.52479], [-80.30151, 43.52499], [-80.30139, 43.52489], [-80.30127, 43.52479], [-80.30115, 43.5247], [-80.30104, 43.52461], [-80.3009, 43.52454], [-80.30076, 43.52448], [-80.30061, 43.52444], [-80.30045, 43.5244], [-80.30029, 43.52438], [-80.30013, 43.52437], [-80.29997, 43.52438], [-80.2998, 43.52439], [-80.29965, 43.52443], [-80.29948, 43.52447], [-80.2993, 43.52452], [-80.29913, 43.52457], [-80.29896, 43.52462], [-80.29878, 43.52467], [-80.29861, 43.52472], [-80.29844, 43.52477], [-80.29828, 43.52482], [-80.29813, 43.52488], [-80.29798, 43.52493], [-80.29786, 43.52502], [-80.29773, 43.5251], [-80.2976, 43.52519], [-80.29746, 43.52528], [-80.29715, 43.52506], [-80.2968, 43.52533]]]}}, {"type": "Feature", "properties": {"name": "Sloan Hill Park", "address": "106 Beaumont Crescent", "status": "missing", "objectid": 71}, "geometry": {"type": "Polygon", "coordinates": [[[-80.21741, 43.55844], [-80.21784, 43.55829], [-80.21695, 43.55764], [-80.21652, 43.55778], [-80.21679, 43.55798], [-80.21688, 43.55805], [-80.2171, 43.55821], [-80.21718, 43.55827], [-80.21741, 43.55844]]]}}, {"type": "Feature", "properties": {"name": "Waterloo Avenue Park", "address": "1 Gordon Street", "status": "missing", "objectid": 83}, "geometry": {"type": "Polygon", "coordinates": [[[-80.24948, 43.54137], [-80.24934, 43.54129], [-80.24933, 43.54128], [-80.24908, 43.54175], [-80.24913, 43.54171], [-80.24925, 43.54159], [-80.24948, 43.54137]]]}}, {"type": "Feature", "properties": {"name": "Northview Estates Subdivision Park", "address": "83 Wideman Boulevard", "status": "mismatch", "objectid": 90, "osm_name": "Northview Park", "osm_url": "https://www.openstreetmap.org/way/772811888"}, "geometry": {"type": "Polygon", "coordinates": [[[-80.26303, 43.58356], [-80.26304, 43.58357], [-80.26305, 43.58357], [-80.26305, 43.58358], [-80.26306, 43.58358], [-80.26307, 43.58358], [-80.26308, 43.58358], [-80.26309, 43.58358], [-80.2631, 43.58359], [-80.26311, 43.58359], [-80.26312, 43.58358], [-80.26312, 43.58358], [-80.26313, 43.58358], [-80.26314, 43.58358], [-80.26315, 43.58358], [-80.26315, 43.58357], [-80.26316, 43.58357], [-80.26317, 43.58357], [-80.26317, 43.58356], [-80.26364, 43.58322], [-80.26365, 43.58321], [-80.26365, 43.58321], [-80.26366, 43.5832], [-80.26366, 43.5832], [-80.26366, 43.58319], [-80.26367, 43.58319], [-80.26367, 43.58318], [-80.26367, 43.58317], [-80.26367, 43.58317], [-80.26367, 43.58316], [-80.26367, 43.58316], [-80.26367, 43.58315], [-80.26367, 43.58315], [-80.26366, 43.58314], [-80.26366, 43.58313], [-80.26365, 43.58313], [-80.26365, 43.58312], [-80.26364, 43.58312], [-80.26232, 43.58216], [-80.26231, 43.58215], [-80.26229, 43.58214], [-80.26227, 43.58214], [-80.26224, 43.58213], [-80.26221, 43.58214], [-80.26219, 43.58215], [-80.26217, 43.58216], [-80.2617, 43.5825], [-80.26169, 43.58251], [-80.26168, 43.58253], [-80.26167, 43.58255], [-80.26168, 43.58257], [-80.26169, 43.58259], [-80.2617, 43.5826], [-80.26171, 43.5826], [-80.26303, 43.58356]]]}}, {"type": "Feature", "properties": {"name": "Windsor Park", "address": "74 Waverly Drive", "status": "unnamed", "objectid": 94, "osm_name": null, "osm_url": "https://www.openstreetmap.org/way/772926647"}, "geometry": {"type": "Polygon", "coordinates": [[[-80.26178, 43.57088], [-80.26177, 43.57087], [-80.26148, 43.57053], [-80.2614, 43.57059], [-80.26132, 43.57065], [-80.26125, 43.57071], [-80.26118, 43.57078], [-80.26112, 43.57085], [-80.26146, 43.5711], [-80.26128, 43.57131], [-80.2612, 43.57141], [-80.26116, 43.57145], [-80.26113, 43.57149], [-80.26104, 43.57159], [-80.26096, 43.57169], [-80.26092, 43.57173], [-80.26089, 43.57177], [-80.26081, 43.57187], [-80.26072, 43.57197], [-80.26069, 43.57201], [-80.26065, 43.57206], [-80.2606, 43.57212], [-80.26052, 43.57209], [-80.26022, 43.57202], [-80.26013, 43.57213], [-80.2607, 43.57226], [-80.26095, 43.57208], [-80.26141, 43.57175], [-80.26188, 43.5714], [-80.26177, 43.57132], [-80.26178, 43.57105], [-80.26178, 43.57088]]]}}, {"type": "Feature", "properties": {"name": "Boathouse Park", "address": "114 & 116 Gordon Street", "status": "missing", "objectid": 97}, "geometry": {"type": "Polygon", "coordinates": [[[-80.24214, 43.53908], [-80.24208, 43.53909], [-80.24201, 43.5391], [-80.24195, 43.5391], [-80.2419, 43.53911], [-80.24185, 43.53911], [-80.24185, 43.53911], [-80.2418, 43.53912], [-80.24175, 43.53913], [-80.2417, 43.53915], [-80.24164, 43.53918], [-80.24163, 43.53918], [-80.24159, 43.53921], [-80.24159, 43.53921], [-80.24157, 43.53923], [-80.24155, 43.53924], [-80.24153, 43.53926], [-80.24151, 43.53928], [-80.24149, 43.53931], [-80.24147, 43.53933], [-80.24146, 43.53935], [-80.24145, 43.53937], [-80.24144, 43.53939], [-80.24143, 43.53941], [-80.24142, 43.53943], [-80.24142, 43.53945], [-80.24141, 43.53947], [-80.24141, 43.53949], [-80.2414, 43.53952], [-80.2414, 43.53955], [-80.2414, 43.53957], [-80.24141, 43.53961], [-80.24142, 43.53961], [-80.24141, 43.53961], [-80.24142, 43.53964], [-80.24143, 43.53966], [-80.24145, 43.53969], [-80.24146, 43.53971], [-80.24147, 43.53973], [-80.24149, 43.53974], [-80.24154, 43.53976], [-80.24155, 43.53977], [-80.24159, 43.53979], [-80.24162, 43.53981], [-80.24165, 43.53983], [-80.24168, 43.53985], [-80.2417, 43.53986], [-80.24173, 43.53988], [-80.24176, 43.5399], [-80.24178, 43.53992], [-80.24181, 43.53993], [-80.24185, 43.53995], [-80.24186, 43.53996], [-80.24189, 43.53998], [-80.24192, 43.54], [-80.24195, 43.54002], [-80.24197, 43.54004], [-80.24206, 43.54009], [-80.24209, 43.54011], [-80.24212, 43.54013], [-80.24216, 43.54016], [-80.24219, 43.54017], [-80.24221, 43.54019], [-80.24226, 43.54022], [-80.24227, 43.54022], [-80.24227, 43.54022], [-80.24228, 43.54023], [-80.24229, 43.54024], [-80.24233, 43.54027], [-80.24236, 43.54029], [-80.2424, 43.54032], [-80.24244, 43.54034], [-80.24246, 43.54037], [-80.24249, 43.54039], [-80.24251, 43.5404], [-80.24253, 43.54042], [-80.24255, 43.54043], [-80.24257, 43.54044], [-80.2426, 43.54046], [-80.24262, 43.54048], [-80.24264, 43.5405], [-80.24266, 43.54052], [-80.24269, 43.54054], [-80.2427, 43.54055], [-80.24277, 43.54061], [-80.2428, 43.54063], [-80.24283, 43.54066], [-80.24286, 43.54068], [-80.24289, 43.5407], [-80.24294, 43.54074], [-80.24299, 43.54078], [-80.24301, 43.5408], [-80.24304, 43.54083], [-80.24309, 43.54078], [-80.24296, 43.54067], [-80.2426, 43.54036], [-80.2431, 43.53994], [-80.24315, 43.5399], [-80.24281, 43.53951], [-80.24218, 43.53907], [-80.24214, 43.53908]]]}}, {"type": "Feature", "properties": {"name": "Northumberland Park", "address": "10 Northumberland Road", "status": "missing", "objectid": 104}, "geometry": {"type": "Polygon", "coordinates": [[[-80.25022, 43.5427], [-80.24998, 43.54245], [-80.24992, 43.54249], [-80.2499, 43.54247], [-80.24967, 43.54262], [-80.24991, 43.54285], [-80.25022, 43.5427]]]}}, {"type": "Feature", "properties": {"name": "Mkinaak Donjibaa Park", "address": "249 Ambrous Crescent", "status": "missing", "objectid": 105}, "geometry": {"type": "Polygon", "coordinates": [[[-80.19886, 43.52726], [-80.19859, 43.52747], [-80.19828, 43.5277], [-80.19846, 43.52783], [-80.19859, 43.52773], [-80.19868, 43.52766], [-80.19877, 43.5276], [-80.19886, 43.52753], [-80.19895, 43.52746], [-80.19904, 43.52739], [-80.19937, 43.52763], [-80.20038, 43.52687], [-80.20004, 43.52663], [-80.20015, 43.52655], [-80.20026, 43.52647], [-80.20036, 43.52639], [-80.20049, 43.52629], [-80.20064, 43.52618], [-80.20047, 43.52605], [-80.20011, 43.52632], [-80.19986, 43.52651], [-80.19936, 43.5264], [-80.19934, 43.52643], [-80.19933, 43.52644], [-80.19931, 43.52647], [-80.19929, 43.52649], [-80.19878, 43.52687], [-80.19874, 43.52689], [-80.19871, 43.5269], [-80.19868, 43.52691], [-80.19886, 43.52726]]]}}, {"type": "Feature", "properties": {"name": "Paisley & Edinburgh Park", "address": "253 Paisley Street", "status": "mismatch", "objectid": 108, "osm_name": "Blossom Junction", "osm_url": "https://www.openstreetmap.org/way/825080918"}, "geometry": {"type": "Polygon", "coordinates": [[[-80.26279, 43.54102], [-80.26252, 43.541], [-80.26249, 43.54102], [-80.26243, 43.54104], [-80.26237, 43.54105], [-80.26231, 43.54107], [-80.26226, 43.54108], [-80.26215, 43.54109], [-80.26205, 43.5411], [-80.26197, 43.5411], [-80.26188, 43.5411], [-80.26184, 43.5411], [-80.2618, 43.5411], [-80.26177, 43.5411], [-80.26171, 43.5411], [-80.26165, 43.54111], [-80.26159, 43.54111], [-80.26178, 43.54131], [-80.26178, 43.54131], [-80.26201, 43.54155], [-80.26227, 43.54142], [-80.26236, 43.54138], [-80.26257, 43.54127], [-80.2629, 43.5411], [-80.26279, 43.54102]]]}}, {"type": "Feature", "properties": {"name": "Crane Park", "address": "96 Dovercliffe Road", "status": "missing", "objectid": 109}, "geometry": {"type": "Polygon", "coordinates": [[[-80.25829, 43.51309], [-80.25861, 43.51285], [-80.25939, 43.51227], [-80.25938, 43.51226], [-80.25937, 43.51223], [-80.25936, 43.51219], [-80.25934, 43.51213], [-80.25933, 43.51211], [-80.25929, 43.51209], [-80.25927, 43.51207], [-80.25925, 43.51204], [-80.25924, 43.51203], [-80.25922, 43.512], [-80.25918, 43.51193], [-80.25916, 43.51191], [-80.25914, 43.51188], [-80.25911, 43.51185], [-80.25909, 43.51182], [-80.25904, 43.51177], [-80.259, 43.51173], [-80.25899, 43.51171], [-80.25898, 43.51169], [-80.25897, 43.51167], [-80.25894, 43.51166], [-80.25892, 43.51164], [-80.25891, 43.51163], [-80.2589, 43.51161], [-80.25888, 43.51159], [-80.25884, 43.51154], [-80.25882, 43.51152], [-80.2588, 43.5115], [-80.25878, 43.51149], [-80.25875, 43.51148], [-80.25873, 43.51147], [-80.25866, 43.51142], [-80.25863, 43.5114], [-80.25859, 43.51137], [-80.25854, 43.51134], [-80.25849, 43.5113], [-80.25847, 43.51129], [-80.25844, 43.51127], [-80.25841, 43.51127], [-80.25837, 43.51126], [-80.25835, 43.51125], [-80.25833, 43.51123], [-80.25832, 43.51122], [-80.25829, 43.51118], [-80.25825, 43.51114], [-80.25821, 43.51111], [-80.2581, 43.511], [-80.25808, 43.51097], [-80.25803, 43.51093], [-80.25799, 43.51091], [-80.25795, 43.51088], [-80.25792, 43.51086], [-80.25788, 43.51084], [-80.25785, 43.51082], [-80.25778, 43.51078], [-80.25772, 43.51074], [-80.25769, 43.51071], [-80.25763, 43.51065], [-80.25759, 43.51063], [-80.25754, 43.51063], [-80.2575, 43.51063], [-80.25745, 43.51062], [-80.25741, 43.51063], [-80.25739, 43.51065], [-80.25736, 43.51067], [-80.25732, 43.51069], [-80.2573, 43.51071], [-80.25729, 43.51072], [-80.25728, 43.51072], [-80.25727, 43.51072], [-80.25725, 43.51071], [-80.25724, 43.51069], [-80.25724, 43.51068], [-80.25725, 43.51067], [-80.25724, 43.51065], [-80.25722, 43.51064], [-80.2572, 43.51062], [-80.2572, 43.51061], [-80.25719, 43.51059], [-80.2572, 43.51056], [-80.2572, 43.51053], [-80.2572, 43.51048], [-80.2572, 43.51043], [-80.25716, 43.51038], [-80.25714, 43.51035], [-80.25713, 43.51033], [-80.25711, 43.5103], [-80.25709, 43.51028], [-80.25701, 43.5102], [-80.25698, 43.51017], [-80.25694, 43.51013], [-80.25691, 43.5101], [-80.25688, 43.51006], [-80.25684, 43.51002], [-80.25682, 43.50998], [-80.25679, 43.50995], [-80.25677, 43.50992], [-80.25675, 43.50989], [-80.25672, 43.50985], [-80.25668, 43.50981], [-80.25666, 43.50978], [-80.25664, 43.50974], [-80.25663, 43.5097], [-80.25662, 43.50967], [-80.25662, 43.50965], [-80.25661, 43.50962], [-80.25661, 43.50958], [-80.25659, 43.50954], [-80.25658, 43.50951], [-80.25657, 43.50947], [-80.25656, 43.50944], [-80.25653, 43.50939], [-80.2565, 43.50936], [-80.25649, 43.50935], [-80.25649, 43.50933], [-80.25649, 43.50932], [-80.25648, 43.5093], [-80.25649, 43.50925], [-80.25647, 43.50919], [-80.25646, 43.50915], [-80.25645, 43.50911], [-80.25643, 43.50905], [-80.25642, 43.50902], [-80.2564, 43.50898], [-80.25637, 43.50891], [-80.25635, 43.50888], [-80.25633, 43.50884], [-80.25631, 43.5088], [-80.25628, 43.50875], [-80.25626, 43.5087], [-80.25624, 43.50865], [-80.25623, 43.50862], [-80.25619, 43.50859], [-80.25616, 43.50857], [-80.25612, 43.50855], [-80.2561, 43.50852], [-80.25607, 43.50848], [-80.25604, 43.50845], [-80.25601, 43.50843], [-80.25598, 43.50839], [-80.25596, 43.50835], [-80.25591, 43.50829], [-80.25587, 43.50822], [-80.25582, 43.50817], [-80.2558, 43.50815], [-80.25579, 43.50812], [-80.25578, 43.50811], [-80.25576, 43.50809], [-80.25574, 43.50808], [-80.25571, 43.50807], [-80.2557, 43.50807], [-80.25568, 43.50807], [-80.25569, 43.50809], [-80.25569, 43.5081], [-80.2557, 43.50812], [-80.25571, 43.50813], [-80.25572, 43.50815], [-80.25572, 43.50816], [-80.25572, 43.50818], [-80.2557, 43.5082], [-80.25569, 43.50823], [-80.25568, 43.50825], [-80.25566, 43.50829], [-80.25564, 43.50829], [-80.25562, 43.50828], [-80.2556, 43.50827], [-80.25559, 43.50826], [-80.25559, 43.50824], [-80.25559, 43.50821], [-80.25558, 43.50817], [-80.25558, 43.50814], [-80.25557, 43.50808], [-80.25556, 43.50804], [-80.25554, 43.50798], [-80.25551, 43.50791], [-80.25548, 43.50785], [-80.25545, 43.50779], [-80.25543, 43.50774], [-80.25541, 43.5077], [-80.25538, 43.50766], [-80.25536, 43.50762], [-80.25535, 43.5076], [-80.25535, 43.5076], [-80.25514, 43.50731], [-80.25514, 43.50731], [-80.24998, 43.50872], [-80.24948, 43.50921], [-80.24957, 43.50918], [-80.2498, 43.50912], [-80.24989, 43.50909], [-80.24995, 43.50907], [-80.2501, 43.50903], [-80.25022, 43.50899], [-80.25087, 43.50881], [-80.25133, 43.50868], [-80.25133, 43.50868], [-80.25208, 43.50872], [-80.25214, 43.5087], [-80.25245, 43.50869], [-80.25282, 43.50868], [-80.25304, 43.50867], [-80.25353, 43.50897], [-80.25394, 43.50921], [-80.2541, 43.50936], [-80.25441, 43.50963], [-80.25457, 43.50977], [-80.25501, 43.51016], [-80.25509, 43.51024], [-80.25508, 43.51025], [-80.25539, 43.51056], [-80.2556, 43.51076], [-80.25575, 43.51091], [-80.25589, 43.51105], [-80.25603, 43.51118], [-80.2561, 43.51112], [-80.25627, 43.51129], [-80.25632, 43.51134], [-80.25643, 43.51145], [-80.25655, 43.51157], [-80.25667, 43.51169], [-80.25678, 43.5118], [-80.2569, 43.51191], [-80.25701, 43.51203], [-80.25713, 43.51214], [-80.25724, 43.51226], [-80.25714, 43.51229], [-80.25726, 43.51241], [-80.25737, 43.51252], [-80.25748, 43.51264], [-80.25752, 43.51268], [-80.25763, 43.51273], [-80.2578, 43.51282], [-80.25797, 43.51291], [-80.25813, 43.513], [-80.25829, 43.51309]]]}}, {"type": "Feature", "properties": {"name": "Elmira Park", "address": "395 Elmira Road", "status": "missing", "objectid": 111}, "geometry": {"type": "Polygon", "coordinates": [[[-80.28015, 43.51749], [-80.28029, 43.51761], [-80.28043, 43.51772], [-80.28057, 43.51783], [-80.28072, 43.51794], [-80.28087, 43.51804], [-80.28102, 43.51814], [-80.28146, 43.51782], [-80.28165, 43.51767], [-80.28181, 43.51755], [-80.28148, 43.51732], [-80.2818, 43.51709], [-80.28178, 43.51708], [-80.28176, 43.51707], [-80.28144, 43.51729], [-80.28109, 43.51704], [-80.28092, 43.51693], [-80.28076, 43.51705], [-80.28048, 43.51725], [-80.28015, 43.51749]]]}}, {"type": "Feature", "properties": {"name": "Bathgate Drive Park", "address": "52 Bathgate Drive", "status": "mismatch", "objectid": 125, "osm_name": "Bathgate Park", "osm_url": "https://www.openstreetmap.org/way/772823177"}, "geometry": {"type": "Polygon", "coordinates": [[[-80.20568, 43.52053], [-80.20559, 43.5205], [-80.2055, 43.52046], [-80.20542, 43.52042], [-80.20533, 43.52037], [-80.20526, 43.52032], [-80.20515, 43.52026], [-80.20482, 43.5205], [-80.20524, 43.52075], [-80.20545, 43.52084], [-80.20568, 43.52053]]]}}, {"type": "Feature", "properties": {"name": "Silvercreek Park", "address": "141 & 142 & 175 & 176 Edinburgh Road South", "status": "mismatch", "objectid": 130, "osm_name": "Silver Creek Park", "osm_url": "https://www.openstreetmap.org/way/846635222"}, "geometry": {"type": "MultiPolygon", "coordinates": [[[[-80.2559, 43.53101], [-80.25484, 43.53138], [-80.25474, 43.53142], [-80.25413, 43.53191], [-80.25386, 43.53213], [-80.25324, 43.53263], [-80.25267, 43.53313], [-80.25264, 43.53315], [-80.25295, 43.53341], [-80.25298, 43.5334], [-80.25306, 43.53336], [-80.25313, 43.53333], [-80.25321, 43.53328], [-80.2533, 43.53323], [-80.2534, 43.53316], [-80.25347, 43.53312], [-80.25356, 43.53306], [-80.25365, 43.53301], [-80.25374, 43.53295], [-80.25385, 43.53288], [-80.25399, 43.53279], [-80.25408, 43.53273], [-80.25418, 43.53268], [-80.25425, 43.53262], [-80.25434, 43.53255], [-80.25443, 43.53248], [-80.25452, 43.53243], [-80.25462, 43.53235], [-80.25474, 43.53227], [-80.25495, 43.53213], [-80.25503, 43.53208], [-80.25508, 43.53205], [-80.25508, 43.53204], [-80.25512, 43.53201], [-80.25517, 43.53198], [-80.25521, 43.53195], [-80.25525, 43.53193], [-80.25528, 43.53191], [-80.2553, 43.53189], [-80.25534, 43.53185], [-80.25538, 43.53182], [-80.25541, 43.5318], [-80.25545, 43.53176], [-80.25549, 43.53173], [-80.25553, 43.53169], [-80.25557, 43.53166], [-80.25559, 43.53164], [-80.25562, 43.53161], [-80.25565, 43.53158], [-80.2557, 43.53155], [-80.25579, 43.53148], [-80.25585, 43.53144], [-80.2559, 43.5314], [-80.25595, 43.53136], [-80.25598, 43.53134], [-80.25603, 43.5313], [-80.25606, 43.53127], [-80.25609, 43.53124], [-80.25612, 43.53121], [-80.25615, 43.53119], [-80.25618, 43.53116], [-80.25624, 43.53109], [-80.25628, 43.53106], [-80.25632, 43.53102], [-80.25635, 43.53099], [-80.25639, 43.53096], [-80.25642, 43.53093], [-80.25645, 43.5309], [-80.25648, 43.53086], [-80.25651, 43.53083], [-80.25654, 43.53081], [-80.25657, 43.53078], [-80.2566, 43.53075], [-80.25664, 43.53072], [-80.25666, 43.53069], [-80.25668, 43.53067], [-80.25674, 43.53062], [-80.25679, 43.53056], [-80.25683, 43.53053], [-80.25688, 43.5305], [-80.25692, 43.53047], [-80.25696, 43.53043], [-80.257, 43.5304], [-80.25703, 43.53037], [-80.25708, 43.53033], [-80.25712, 43.53029], [-80.25717, 43.53026], [-80.2572, 43.53022], [-80.25724, 43.53018], [-80.25728, 43.53015], [-80.25732, 43.53011], [-80.25736, 43.53009], [-80.25739, 43.53005], [-80.25743, 43.53002], [-80.25745, 43.52999], [-80.25748, 43.52996], [-80.25751, 43.52994], [-80.25755, 43.52991], [-80.25758, 43.52987], [-80.25762, 43.52984], [-80.25765, 43.52981], [-80.25769, 43.52978], [-80.25762, 43.52971], [-80.25811, 43.52932], [-80.25947, 43.52816], [-80.25997, 43.52754], [-80.25937, 43.52716], [-80.25615, 43.52582], [-80.25516, 43.52493], [-80.25503, 43.52481], [-80.25489, 43.52469], [-80.25476, 43.52457], [-80.25464, 43.52444], [-80.25452, 43.52431], [-80.2544, 43.52418], [-80.25429, 43.52404], [-80.25409, 43.52419], [-80.25447, 43.52458], [-80.25444, 43.52464], [-80.25451, 43.52467], [-80.25456, 43.5247], [-80.25462, 43.52474], [-80.25467, 43.52478], [-80.25472, 43.52482], [-80.25486, 43.52496], [-80.25502, 43.5251], [-80.25518, 43.52523], [-80.25534, 43.52536], [-80.25551, 43.52549], [-80.25569, 43.52561], [-80.25586, 43.52574], [-80.25605, 43.52585], [-80.25624, 43.52597], [-80.25643, 43.52608], [-80.25663, 43.52618], [-80.25683, 43.52628], [-80.25703, 43.52638], [-80.25723, 43.52647], [-80.25743, 43.52656], [-80.25764, 43.52664], [-80.25839, 43.52692], [-80.25841, 43.52693], [-80.25843, 43.52693], [-80.25846, 43.52693], [-80.25848, 43.52692], [-80.25851, 43.52691], [-80.25854, 43.5269], [-80.25858, 43.5269], [-80.25861, 43.5269], [-80.25865, 43.5269], [-80.25868, 43.52691], [-80.25872, 43.52692], [-80.25875, 43.52694], [-80.25878, 43.52696], [-80.2588, 43.52699], [-80.25881, 43.52701], [-80.25882, 43.52704], [-80.25882, 43.52707], [-80.25881, 43.5271], [-80.2588, 43.52712], [-80.25878, 43.52715], [-80.25876, 43.52717], [-80.25873, 43.52719], [-80.2587, 43.5272], [-80.25867, 43.52722], [-80.25863, 43.52722], [-80.25859, 43.52722], [-80.25856, 43.52722], [-80.25852, 43.52721], [-80.25849, 43.5272], [-80.25834, 43.52741], [-80.25824, 43.52747], [-80.25803, 43.52759], [-80.25782, 43.5277], [-80.25778, 43.52772], [-80.25757, 43.52775], [-80.25732, 43.52777], [-80.25711, 43.52779], [-80.25693, 43.52781], [-80.25676, 43.52783], [-80.25658, 43.52785], [-80.2564, 43.52786], [-80.25623, 43.52788], [-80.25605, 43.5279], [-80.25587, 43.52792], [-80.25569, 43.52794], [-80.25552, 43.52796], [-80.25534, 43.52797], [-80.25516, 43.52799], [-80.25498, 43.52801], [-80.25481, 43.52803], [-80.25468, 43.52804], [-80.25455, 43.52806], [-80.25459, 43.52808], [-80.25481, 43.52823], [-80.25492, 43.52831], [-80.25518, 43.52848], [-80.25525, 43.52853], [-80.25561, 43.52827], [-80.25578, 43.5284], [-80.25716, 43.52937], [-80.25599, 43.53051], [-80.25598, 43.5305], [-80.25562, 43.53078], [-80.25448, 43.52998], [-80.25404, 43.52967], [-80.25402, 43.52969], [-80.2559, 43.53101]]], [[[-80.26054, 43.5278], [-80.2605, 43.52785], [-80.26046, 43.52789], [-80.26043, 43.52792], [-80.2604, 43.52796], [-80.26036, 43.52799], [-80.26033, 43.52803], [-80.26028, 43.52807], [-80.26023, 43.52812], [-80.2602, 43.52815], [-80.26017, 43.52818], [-80.26013, 43.52821], [-80.2601, 43.52824], [-80.26006, 43.52828], [-80.26002, 43.52831], [-80.26, 43.52833], [-80.25995, 43.52838], [-80.25991, 43.52841], [-80.25988, 43.52844], [-80.25984, 43.52848], [-80.25979, 43.52853], [-80.25973, 43.52859], [-80.25966, 43.52865], [-80.25961, 43.52869], [-80.25956, 43.52873], [-80.2595, 43.52877], [-80.25944, 43.52883], [-80.2594, 43.52886], [-80.25935, 43.5289], [-80.25931, 43.52893], [-80.25927, 43.52898], [-80.25922, 43.52902], [-80.25917, 43.52906], [-80.25913, 43.52909], [-80.25909, 43.52913], [-80.25905, 43.52917], [-80.25901, 43.52921], [-80.25896, 43.52925], [-80.25892, 43.52929], [-80.25885, 43.52934], [-80.2588, 43.52938], [-80.25876, 43.52942], [-80.25871, 43.52947], [-80.25867, 43.52951], [-80.25863, 43.52955], [-80.2586, 43.52957], [-80.25857, 43.5296], [-80.25854, 43.52964], [-80.25851, 43.52967], [-80.25846, 43.52972], [-80.25842, 43.52976], [-80.25838, 43.5298], [-80.25832, 43.52983], [-80.25828, 43.52987], [-80.25823, 43.52993], [-80.25818, 43.52997], [-80.25812, 43.53002], [-80.25806, 43.53006], [-80.25802, 43.5301], [-80.25796, 43.53015], [-80.25791, 43.53019], [-80.25784, 43.53023], [-80.25779, 43.53028], [-80.25774, 43.53032], [-80.25772, 43.53034], [-80.25768, 43.53038], [-80.25766, 43.5304], [-80.25763, 43.53042], [-80.2576, 43.53044], [-80.25757, 43.53047], [-80.25752, 43.53051], [-80.25749, 43.53054], [-80.25745, 43.53057], [-80.25741, 43.53061], [-80.25737, 43.53065], [-80.25732, 43.53068], [-80.25728, 43.53073], [-80.25722, 43.53077], [-80.25716, 43.53083], [-80.2571, 43.53088], [-80.25705, 43.53092], [-80.25701, 43.53095], [-80.25696, 43.531], [-80.25692, 43.53104], [-80.25687, 43.53108], [-80.25683, 43.53111], [-80.2568, 43.53115], [-80.25676, 43.53118], [-80.25673, 43.53121], [-80.25669, 43.53124], [-80.25664, 43.53128], [-80.25659, 43.53134], [-80.25653, 43.53139], [-80.25648, 43.53143], [-80.25644, 43.53147], [-80.25639, 43.53151], [-80.25636, 43.53156], [-80.25632, 43.53159], [-80.25628, 43.53162], [-80.25624, 43.53166], [-80.25619, 43.53169], [-80.25615, 43.53173], [-80.25611, 43.53177], [-80.25608, 43.5318], [-80.25607, 43.53181], [-80.25607, 43.53181], [-80.25606, 43.53183], [-80.25599, 43.53187], [-80.25597, 43.53188], [-80.25595, 43.5319], [-80.25592, 43.53193], [-80.25589, 43.53196], [-80.25585, 43.53199], [-80.2558, 43.53202], [-80.25575, 43.53205], [-80.25571, 43.53208], [-80.25567, 43.53213], [-80.25563, 43.53216], [-80.25558, 43.53221], [-80.25554, 43.53225], [-80.25549, 43.53229], [-80.25544, 43.53232], [-80.2554, 43.53235], [-80.25536, 43.53237], [-80.2553, 43.53242], [-80.2552, 43.53248], [-80.25506, 43.53254], [-80.25495, 43.53262], [-80.25484, 43.53269], [-80.25474, 43.53275], [-80.25462, 43.53282], [-80.25453, 43.53288], [-80.25445, 43.53295], [-80.25435, 43.53302], [-80.25427, 43.53308], [-80.25417, 43.53314], [-80.25411, 43.53319], [-80.25403, 43.53323], [-80.25396, 43.53326], [-80.25386, 43.53332], [-80.25376, 43.53336], [-80.25367, 43.53342], [-80.25359, 43.53346], [-80.25352, 43.5335], [-80.25344, 43.53352], [-80.25335, 43.53357], [-80.25322, 43.53364], [-80.25386, 43.53419], [-80.25663, 43.53211], [-80.25677, 43.53202], [-80.2569, 43.53192], [-80.25703, 43.53181], [-80.25715, 43.53171], [-80.25727, 43.5316], [-80.25961, 43.5294], [-80.26054, 43.52854], [-80.26068, 43.52845], [-80.26082, 43.52836], [-80.26097, 43.52828], [-80.26112, 43.5282], [-80.26112, 43.5282], [-80.26107, 43.52816], [-80.26055, 43.5278], [-80.26055, 43.5278], [-80.26054, 43.5278]]], [[[-80.24595, 43.53638], [-80.24591, 43.5364], [-80.24598, 43.53646], [-80.24612, 43.53659], [-80.24614, 43.53659], [-80.24617, 43.53658], [-80.24621, 43.53657], [-80.24625, 43.53656], [-80.24628, 43.53655], [-80.24632, 43.53653], [-80.24636, 43.53653], [-80.2464, 43.53652], [-80.24644, 43.53652], [-80.24648, 43.53651], [-80.24652, 43.53651], [-80.24656, 43.5365], [-80.2466, 43.53649], [-80.24664, 43.53648], [-80.24668, 43.53647], [-80.24673, 43.53646], [-80.24677, 43.53645], [-80.24681, 43.53644], [-80.24685, 43.53643], [-80.24689, 43.53641], [-80.24693, 43.53639], [-80.24697, 43.53638], [-80.24701, 43.53637], [-80.24705, 43.53635], [-80.24709, 43.53634], [-80.24713, 43.53632], [-80.24717, 43.5363], [-80.24722, 43.53629], [-80.24726, 43.53627], [-80.2473, 43.53626], [-80.24734, 43.53624], [-80.24737, 43.53622], [-80.2474, 43.53621], [-80.24744, 43.5362], [-80.24746, 43.53619], [-80.2475, 43.53618], [-80.24753, 43.53617], [-80.24755, 43.53616], [-80.24758, 43.53615], [-80.24759, 43.53614], [-80.2482, 43.53587], [-80.24821, 43.53587], [-80.24825, 43.53586], [-80.24828, 43.53584], [-80.24832, 43.53582], [-80.24835, 43.53581], [-80.24839, 43.53579], [-80.24843, 43.53577], [-80.24847, 43.53575], [-80.24851, 43.53573], [-80.24854, 43.53571], [-80.24858, 43.53569], [-80.24862, 43.53568], [-80.24866, 43.53567], [-80.24869, 43.53565], [-80.24873, 43.53563], [-80.24876, 43.53561], [-80.2488, 43.53559], [-80.24883, 43.53556], [-80.24887, 43.53554], [-80.2489, 43.53552], [-80.24894, 43.5355], [-80.24897, 43.53548], [-80.24901, 43.53546], [-80.24905, 43.53544], [-80.24908, 43.53542], [-80.24912, 43.5354], [-80.24916, 43.53538], [-80.2492, 43.53536], [-80.24924, 43.53534], [-80.24928, 43.53532], [-80.24932, 43.5353], [-80.24937, 43.53529], [-80.2494, 43.53527], [-80.24944, 43.53524], [-80.24947, 43.53523], [-80.24951, 43.53521], [-80.24955, 43.53519], [-80.24959, 43.53517], [-80.24963, 43.53516], [-80.24966, 43.53514], [-80.2497, 43.53512], [-80.24974, 43.5351], [-80.24977, 43.53508], [-80.24982, 43.53506], [-80.24985, 43.53504], [-80.24989, 43.53502], [-80.24993, 43.535], [-80.24997, 43.53498], [-80.25001, 43.53496], [-80.25004, 43.53495], [-80.25008, 43.53493], [-80.25011, 43.53491], [-80.25014, 43.53489], [-80.25018, 43.53488], [-80.25022, 43.53486], [-80.25025, 43.53484], [-80.25029, 43.53482], [-80.25033, 43.5348], [-80.25036, 43.53478], [-80.25039, 43.53476], [-80.25042, 43.53475], [-80.25045, 43.53473], [-80.25049, 43.53472], [-80.25052, 43.53471], [-80.25055, 43.53469], [-80.25057, 43.53468], [-80.2506, 43.53466], [-80.25062, 43.53465], [-80.25064, 43.53464], [-80.25066, 43.53463], [-80.25068, 43.53463], [-80.25071, 43.53462], [-80.25074, 43.53461], [-80.25077, 43.53461], [-80.2508, 43.53459], [-80.25081, 43.53458], [-80.25083, 43.53456], [-80.25087, 43.53455], [-80.2509, 43.53453], [-80.25093, 43.53452], [-80.25094, 43.5345], [-80.25095, 43.53449], [-80.25097, 43.53448], [-80.25099, 43.53447], [-80.25102, 43.53446], [-80.25105, 43.53445], [-80.25108, 43.53443], [-80.25112, 43.53441], [-80.25115, 43.5344], [-80.25118, 43.53438], [-80.25122, 43.53436], [-80.25125, 43.53434], [-80.25128, 43.53432], [-80.25132, 43.5343], [-80.25135, 43.53428], [-80.25139, 43.53426], [-80.25142, 43.53425], [-80.25146, 43.53423], [-80.25149, 43.53421], [-80.25153, 43.5342], [-80.25156, 43.53418], [-80.2516, 43.53416], [-80.25163, 43.53415], [-80.25167, 43.53413], [-80.2517, 43.53411], [-80.25173, 43.53409], [-80.25176, 43.53407], [-80.25179, 43.53405], [-80.25183, 43.53403], [-80.25186, 43.53402], [-80.25189, 43.534], [-80.25192, 43.53398], [-80.25195, 43.53396], [-80.25199, 43.53395], [-80.25202, 43.53393], [-80.25205, 43.53391], [-80.25209, 43.53389], [-80.25213, 43.53387], [-80.25216, 43.53385], [-80.2522, 43.53383], [-80.25223, 43.53381], [-80.25227, 43.53379], [-80.25231, 43.53378], [-80.25234, 43.53376], [-80.25238, 43.53374], [-80.25241, 43.53373], [-80.25244, 43.53372], [-80.25247, 43.53371], [-80.2525, 43.53369], [-80.25252, 43.53367], [-80.25255, 43.53366], [-80.25258, 43.53364], [-80.25262, 43.53362], [-80.25265, 43.53361], [-80.25267, 43.53359], [-80.25266, 43.53358], [-80.25267, 43.53357], [-80.25235, 43.53327], [-80.25144, 43.53374], [-80.25065, 43.53412], [-80.25026, 43.53431], [-80.24935, 43.53478], [-80.24929, 43.53481], [-80.24768, 43.53556], [-80.24717, 43.53586], [-80.24674, 43.53612], [-80.2467, 43.53609], [-80.24662, 43.53603], [-80.24595, 43.53638]]], [[[-80.24662, 43.53703], [-80.24634, 43.53758], [-80.24647, 43.53762], [-80.24652, 43.53769], [-80.25095, 43.53631], [-80.25101, 43.53629], [-80.25108, 43.53626], [-80.25113, 43.53623], [-80.25119, 43.53619], [-80.25357, 43.53441], [-80.25293, 43.53381], [-80.25292, 43.53382], [-80.25292, 43.53382], [-80.25288, 43.53384], [-80.25286, 43.53386], [-80.25283, 43.53388], [-80.2528, 43.53391], [-80.25276, 43.53393], [-80.25273, 43.53395], [-80.2527, 43.53398], [-80.25266, 43.534], [-80.25263, 43.53403], [-80.25259, 43.53406], [-80.25256, 43.53408], [-80.25252, 43.5341], [-80.25248, 43.53413], [-80.25244, 43.53416], [-80.2524, 43.53418], [-80.25236, 43.5342], [-80.25232, 43.53422], [-80.25228, 43.53425], [-80.25224, 43.53427], [-80.2522, 43.53429], [-80.25216, 43.53431], [-80.25212, 43.53433], [-80.25207, 43.53436], [-80.25203, 43.53438], [-80.25199, 43.5344], [-80.25195, 43.53443], [-80.2519, 43.53445], [-80.25186, 43.53447], [-80.25181, 43.53449], [-80.25177, 43.53451], [-80.25174, 43.53453], [-80.2517, 43.53455], [-80.25166, 43.53457], [-80.25161, 43.53459], [-80.25158, 43.53461], [-80.25153, 43.53464], [-80.25149, 43.53465], [-80.25145, 43.53467], [-80.25141, 43.53469], [-80.25137, 43.53471], [-80.25133, 43.53473], [-80.2513, 43.53475], [-80.25126, 43.53477], [-80.25122, 43.53479], [-80.25118, 43.53481], [-80.25114, 43.53482], [-80.25112, 43.53485], [-80.2511, 43.53486], [-80.25107, 43.53488], [-80.25103, 43.53489], [-80.25101, 43.5349], [-80.25098, 43.53491], [-80.25097, 43.53492], [-80.25095, 43.53493], [-80.25093, 43.53495], [-80.25091, 43.53497], [-80.25089, 43.53498], [-80.25086, 43.53499], [-80.25083, 43.535], [-80.25079, 43.53502], [-80.25075, 43.53504], [-80.25071, 43.53506], [-80.25067, 43.53508], [-80.25063, 43.5351], [-80.24992, 43.53544], [-80.24988, 43.53546], [-80.24984, 43.53548], [-80.2498, 43.53549], [-80.24977, 43.53551], [-80.24973, 43.53552], [-80.24969, 43.53554], [-80.24965, 43.53557], [-80.24961, 43.53558], [-80.24957, 43.5356], [-80.24953, 43.53562], [-80.2495, 43.53564], [-80.24946, 43.53566], [-80.24942, 43.53568], [-80.24938, 43.5357], [-80.24934, 43.53572], [-80.2493, 43.53573], [-80.24926, 43.53575], [-80.24922, 43.53577], [-80.24918, 43.53579], [-80.24914, 43.53581], [-80.2491, 43.53583], [-80.24906, 43.53585], [-80.24902, 43.53587], [-80.24898, 43.53589], [-80.24894, 43.53591], [-80.2489, 43.53592], [-80.24886, 43.53593], [-80.24883, 43.53594], [-80.24882, 43.53596], [-80.2488, 43.53598], [-80.24876, 43.536], [-80.24872, 43.53601], [-80.24868, 43.53602], [-80.24864, 43.53604], [-80.24861, 43.53606], [-80.24857, 43.53607], [-80.24854, 43.53608], [-80.24851, 43.53609], [-80.24848, 43.5361], [-80.24845, 43.53611], [-80.24842, 43.53612], [-80.24841, 43.53614], [-80.24841, 43.53615], [-80.24839, 43.53616], [-80.24838, 43.53617], [-80.24837, 43.53618], [-80.24836, 43.53618], [-80.24835, 43.53619], [-80.24788, 43.53644], [-80.24787, 43.53644], [-80.24785, 43.53645], [-80.24782, 43.53647], [-80.24779, 43.53648], [-80.24775, 43.53649], [-80.24771, 43.53651], [-80.24766, 43.53652], [-80.24762, 43.53654], [-80.24758, 43.53656], [-80.24754, 43.53657], [-80.2475, 43.53659], [-80.24745, 43.53661], [-80.24742, 43.53662], [-80.24738, 43.53663], [-80.24734, 43.53665], [-80.2473, 43.53666], [-80.24727, 43.53668], [-80.24724, 43.53669], [-80.2472, 43.5367], [-80.24716, 43.53671], [-80.24712, 43.53672], [-80.24708, 43.53674], [-80.24704, 43.53675], [-80.24701, 43.53676], [-80.24697, 43.53677], [-80.24693, 43.53678], [-80.2469, 43.53679], [-80.24686, 43.5368], [-80.24682, 43.5368], [-80.24678, 43.53681], [-80.24674, 43.53682], [-80.2467, 43.53682], [-80.24667, 43.53684], [-80.24663, 43.53684], [-80.2466, 43.53686], [-80.24658, 43.53688], [-80.24657, 43.53689], [-80.24655, 43.5369], [-80.24653, 43.53691], [-80.24651, 43.53692], [-80.24651, 43.53693], [-80.2465, 43.53693], [-80.24662, 43.53703]]]]}}]}